CCSDS_OMM_VERS = 2.0
CREATION_DATE  = 
ORIGINATOR     = 

OBJECT_NAME    = ALOS (DAICHI)
OBJECT_ID      = 2006-002A
CENTER_NAME    = EARTH
REF_FRAME      = TEME
TIME_SYSTEM    = UTC
MEAN_ELEMENT_THEORY = SGP/SGP4

EPOCH          = 2025-12-17T17:37:14.152512
MEAN_MOTION    = 14.69501788
ECCENTRICITY   = .00013612
INCLINATION    = 98.1098
RA_OF_ASC_NODE = 303.1864
ARG_OF_PERICENTER = 113.5739
MEAN_ANOMALY   = 246.5610

EPHEMERIS_TYPE = 0
CLASSIFICATION_TYPE = U
NORAD_CAT_ID   = 28931
ELEMENT_SET_NO = 999
REV_AT_EPOCH   = 6144
BSTAR          = .19545051E-3
MEAN_MOTION_DOT = .111E-4
MEAN_MOTION_DDOT = 0

CCSDS_OMM_VERS = 2.0
CREATION_DATE  = 
ORIGINATOR     = 

OBJECT_NAME    = H-2A R/B
OBJECT_ID      = 2006-002B
CENTER_NAME    = EARTH
REF_FRAME      = TEME
TIME_SYSTEM    = UTC
MEAN_ELEMENT_THEORY = SGP/SGP4

EPOCH          = 2025-12-22T19:50:42.000864
MEAN_MOTION    = 15.14759907
ECCENTRICITY   = .0054835
INCLINATION    = 98.2323
RA_OF_ASC_NODE = 132.4008
ARG_OF_PERICENTER = 142.2339
MEAN_ANOMALY   = 218.2759

EPHEMERIS_TYPE = 0
CLASSIFICATION_TYPE = U
NORAD_CAT_ID   = 28932
ELEMENT_SET_NO = 999
REV_AT_EPOCH   = 8279
BSTAR          = .50879E-3
MEAN_MOTION_DOT = .9724E-4
MEAN_MOTION_DDOT = 0

CCSDS_OMM_VERS = 2.0
CREATION_DATE  = 
ORIGINATOR     = 

OBJECT_NAME    = RESURS-DK 1
OBJECT_ID      = 2006-021A
CENTER_NAME    = EARTH
REF_FRAME      = TEME
TIME_SYSTEM    = UTC
MEAN_ELEMENT_THEORY = SGP/SGP4

EPOCH          = 2025-12-22T11:42:44.959104
MEAN_MOTION    = 15.12211490
ECCENTRICITY   = .00068667
INCLINATION    = 69.9337
RA_OF_ASC_NODE = 76.6450
ARG_OF_PERICENTER = 250.3556
MEAN_ANOMALY   = 109.6869

EPHEMERIS_TYPE = 0
CLASSIFICATION_TYPE = U
NORAD_CAT_ID   = 29228
ELEMENT_SET_NO = 999
REV_AT_EPOCH   = 7585
BSTAR          = .15666054E-3
MEAN_MOTION_DOT = .2606E-4
MEAN_MOTION_DDOT = 0

CCSDS_OMM_VERS = 2.0
CREATION_DATE  = 
ORIGINATOR     = 

OBJECT_NAME    = CZ-4B R/B
OBJECT_ID      = 2006-046C
CENTER_NAME    = EARTH
REF_FRAME      = TEME
TIME_SYSTEM    = UTC
MEAN_ELEMENT_THEORY = SGP/SGP4

EPOCH          = 2025-12-22T01:49:56.615808
MEAN_MOTION    = 15.15958131
ECCENTRICITY   = .00340573
INCLINATION    = 97.5716
RA_OF_ASC_NODE = 36.1893
ARG_OF_PERICENTER = 173.9689
MEAN_ANOMALY   = 186.1961

EPHEMERIS_TYPE = 0
CLASSIFICATION_TYPE = U
NORAD_CAT_ID   = 29507
ELEMENT_SET_NO = 999
REV_AT_EPOCH   = 4828
BSTAR          = .26938631E-3
MEAN_MOTION_DOT = .5174E-4
MEAN_MOTION_DDOT = 0

CCSDS_OMM_VERS = 2.0
CREATION_DATE  = 
ORIGINATOR     = 

OBJECT_NAME    = CZ-2C R/B
OBJECT_ID      = 2007-010B
CENTER_NAME    = EARTH
REF_FRAME      = TEME
TIME_SYSTEM    = UTC
MEAN_ELEMENT_THEORY = SGP/SGP4

EPOCH          = 2025-12-22T19:02:31.748928
MEAN_MOTION    = 14.20213656
ECCENTRICITY   = .0059531
INCLINATION    = 98.3976
RA_OF_ASC_NODE = 108.9383
ARG_OF_PERICENTER = 156.8301
MEAN_ANOMALY   = 203.5581

EPHEMERIS_TYPE = 0
CLASSIFICATION_TYPE = U
NORAD_CAT_ID   = 31114
ELEMENT_SET_NO = 999
REV_AT_EPOCH   = 96880
BSTAR          = .78605E-4
MEAN_MOTION_DOT = .13E-5
MEAN_MOTION_DDOT = 0

CCSDS_OMM_VERS = 2.0
CREATION_DATE  = 
ORIGINATOR     = 

OBJECT_NAME    = COSMO-SKYMED 1
OBJECT_ID      = 2007-023A
CENTER_NAME    = EARTH
REF_FRAME      = TEME
TIME_SYSTEM    = UTC
MEAN_ELEMENT_THEORY = SGP/SGP4

EPOCH          = 2025-12-22T19:44:18.413376
MEAN_MOTION    = 14.95838883
ECCENTRICITY   = .000146
INCLINATION    = 97.8839
RA_OF_ASC_NODE = 182.2882
ARG_OF_PERICENTER = 80.5923
MEAN_ANOMALY   = 279.5463

EPHEMERIS_TYPE = 0
CLASSIFICATION_TYPE = U
NORAD_CAT_ID   = 31598
ELEMENT_SET_NO = 999
REV_AT_EPOCH   = 341
BSTAR          = .29447E-3
MEAN_MOTION_DOT = .323E-4
MEAN_MOTION_DDOT = 0

CCSDS_OMM_VERS = 2.0
CREATION_DATE  = 
ORIGINATOR     = 

OBJECT_NAME    = COSMOS 2428
OBJECT_ID      = 2007-029A
CENTER_NAME    = EARTH
REF_FRAME      = TEME
TIME_SYSTEM    = UTC
MEAN_ELEMENT_THEORY = SGP/SGP4

EPOCH          = 2025-12-22T10:30:14.036544
MEAN_MOTION    = 14.12893580
ECCENTRICITY   = .00042257
INCLINATION    = 70.9366
RA_OF_ASC_NODE = 5.5178
ARG_OF_PERICENTER = 9.9266
MEAN_ANOMALY   = 350.1937

EPHEMERIS_TYPE = 0
CLASSIFICATION_TYPE = U
NORAD_CAT_ID   = 31792
ELEMENT_SET_NO = 999
REV_AT_EPOCH   = 95318
BSTAR          = .1290909E-3
MEAN_MOTION_DOT = .192E-5
MEAN_MOTION_DDOT = 0

CCSDS_OMM_VERS = 2.0
CREATION_DATE  = 
ORIGINATOR     = 

OBJECT_NAME    = SL-16 R/B
OBJECT_ID      = 2007-029B
CENTER_NAME    = EARTH
REF_FRAME      = TEME
TIME_SYSTEM    = UTC
MEAN_ELEMENT_THEORY = SGP/SGP4

EPOCH          = 2025-12-22T09:04:36.183648
MEAN_MOTION    = 14.14817287
ECCENTRICITY   = .00018897
INCLINATION    = 70.9760
RA_OF_ASC_NODE = 334.8962
ARG_OF_PERICENTER = 263.0492
MEAN_ANOMALY   = 259.9340

EPHEMERIS_TYPE = 0
CLASSIFICATION_TYPE = U
NORAD_CAT_ID   = 31793
ELEMENT_SET_NO = 999
REV_AT_EPOCH   = 95443
BSTAR          = .1645888E-3
MEAN_MOTION_DOT = .27E-5
MEAN_MOTION_DDOT = 0

CCSDS_OMM_VERS = 2.0
CREATION_DATE  = 
ORIGINATOR     = 

OBJECT_NAME    = KORONAS-FOTON
OBJECT_ID      = 2009-003A
CENTER_NAME    = EARTH
REF_FRAME      = TEME
TIME_SYSTEM    = UTC
MEAN_ELEMENT_THEORY = SGP/SGP4

EPOCH          = 2025-12-22T10:16:11.508672
MEAN_MOTION    = 15.41379476
ECCENTRICITY   = .00133802
INCLINATION    = 82.4309
RA_OF_ASC_NODE = 356.0648
ARG_OF_PERICENTER = 78.3070
MEAN_ANOMALY   = 281.9677

EPHEMERIS_TYPE = 0
CLASSIFICATION_TYPE = U
NORAD_CAT_ID   = 33504
ELEMENT_SET_NO = 999
REV_AT_EPOCH   = 93383
BSTAR          = .26250124E-3
MEAN_MOTION_DOT = .11031E-3
MEAN_MOTION_DDOT = 0

CCSDS_OMM_VERS = 2.0
CREATION_DATE  = 
ORIGINATOR     = 

OBJECT_NAME    = CZ-2C R/B
OBJECT_ID      = 2011-030B
CENTER_NAME    = EARTH
REF_FRAME      = TEME
TIME_SYSTEM    = UTC
MEAN_ELEMENT_THEORY = SGP/SGP4

EPOCH          = 2025-12-22T20:42:08.074944
MEAN_MOTION    = 14.80931189
ECCENTRICITY   = .005145
INCLINATION    = 97.8429
RA_OF_ASC_NODE = 310.7460
ARG_OF_PERICENTER = 239.7249
MEAN_ANOMALY   = 174.4030

EPHEMERIS_TYPE = 0
CLASSIFICATION_TYPE = U
NORAD_CAT_ID   = 37731
ELEMENT_SET_NO = 999
REV_AT_EPOCH   = 77872
BSTAR          = .15869E-3
MEAN_MOTION_DOT = .12E-4
MEAN_MOTION_DDOT = 0

CCSDS_OMM_VERS = 2.0
CREATION_DATE  = 
ORIGINATOR     = 

OBJECT_NAME    = H-2A R/B
OBJECT_ID      = 2012-025E
CENTER_NAME    = EARTH
REF_FRAME      = TEME
TIME_SYSTEM    = UTC
MEAN_ELEMENT_THEORY = SGP/SGP4

EPOCH          = 2025-12-22T19:36:02.994912
MEAN_MOTION    = 14.94503807
ECCENTRICITY   = .0044437
INCLINATION    = 98.4610
RA_OF_ASC_NODE = 312.8242
ARG_OF_PERICENTER = 202.6251
MEAN_ANOMALY   = 157.3009

EPHEMERIS_TYPE = 0
CLASSIFICATION_TYPE = U
NORAD_CAT_ID   = 38341
ELEMENT_SET_NO = 999
REV_AT_EPOCH   = 73673
BSTAR          = .26316E-3
MEAN_MOTION_DOT = .2827E-4
MEAN_MOTION_DDOT = 0

CCSDS_OMM_VERS = 2.0
CREATION_DATE  = 
ORIGINATOR     = 

OBJECT_NAME    = SHIJIAN-16 (SJ-16)
OBJECT_ID      = 2013-057A
CENTER_NAME    = EARTH
REF_FRAME      = TEME
TIME_SYSTEM    = UTC
MEAN_ELEMENT_THEORY = SGP/SGP4

EPOCH          = 2025-12-22T20:40:45.073920
MEAN_MOTION    = 14.92008973
ECCENTRICITY   = .0017935
INCLINATION    = 74.9732
RA_OF_ASC_NODE = 330.5016
ARG_OF_PERICENTER = 296.3451
MEAN_ANOMALY   = 63.5895

EPHEMERIS_TYPE = 0
CLASSIFICATION_TYPE = U
NORAD_CAT_ID   = 39358
ELEMENT_SET_NO = 999
REV_AT_EPOCH   = 66004
BSTAR          = .10809E-3
MEAN_MOTION_DOT = .107E-4
MEAN_MOTION_DDOT = 0

